[{"OBJECT_NAME":"ZORKIY-2M 1","OBJECT_ID":"2023-091M","EPOCH":"2026-03-09T22:53:51.179712","MEAN_MOTION":15.19525944,"ECCENTRICITY":0.00152901,"INCLINATION":97.5217,"RA_OF_ASC_NODE":128.2731,"ARG_OF_PERICENTER":102.639,"MEAN_ANOMALY":257.6555,"EPHEMERIS_TYPE":0,"CLASSIFICATION_TYPE":"U","NORAD_CAT_ID":57177,"ELEMENT_SET_NO":999,"REV_AT_EPOCH":14892,"BSTAR":0.00044833188,"MEAN_MOTION_DOT":9.489e-5,"MEAN_MOTION_DDOT":0},{"OBJECT_NAME":"ATLAS CENTAUR R\/B","OBJECT_ID":"1972-041B","EPOCH":"2026-03-09T18:58:27.764832","MEAN_MOTION":2.22594502,"ECCENTRICITY":0.72241264,"INCLINATION":26.4751,"RA_OF_ASC_NODE":267.5106,"ARG_OF_PERICENTER":41.5429,"MEAN_ANOMALY":355.0946,"EPHEMERIS_TYPE":0,"CLASSIFICATION_TYPE":"U","NORAD_CAT_ID":6058,"ELEMENT_SET_NO":999,"REV_AT_EPOCH":43518,"BSTAR":0.00061180625,"MEAN_MOTION_DOT":-2.0e-8,"MEAN_MOTION_DDOT":0}]
